{"type": "FeatureCollection", "features": [{"type": "Feature", "properties": {"norad_id": 26766, "name": "INTELSAT 10 (IS-10)", "group": "intelsat", "lat": -6.808406613758137, "lon": 9.23976745687396, "alt_km": 36121.06726891032, "timestamp": "2025-12-12T09:49:08.395278+00:00", "meta": {"OBJECT_NAME": "INTELSAT 10 (IS-10)", "OBJECT_ID": "2001-019A", "EPOCH": "2025-12-11T14:11:41.135712", "MEAN_MOTION": 0.99078808, "ECCENTRICITY": 0.00077853, "INCLINATION": 8.6274, "RA_OF_ASC_NODE": 61.1692, "ARG_OF_PERICENTER": 224.4537, "MEAN_ANOMALY": 151.554, "EPHEMERIS_TYPE": 0, "CLASSIFICATION_TYPE": "U", "NORAD_CAT_ID": 26766, "ELEMENT_SET_NO": 999, "REV_AT_EPOCH": 4372, "BSTAR": 0, "MEAN_MOTION_DOT": -2.86e-06, "MEAN_MOTION_DDOT": 0}, "tle": {"line1": "1 26766U 01019A   25345.59144833 -.00000286  00000+0  00000+0 0  9999", "line2": "2 26766   8.6274  61.1692 0007785 224.4537 151.5540  0.99078808 43721"}}, "geometry": {"type": "Point", "coordinates": [9.23976745687396, -6.808406613758137]}}, {"type": "Feature", "properties": {"norad_id": 26900, "name": "INTELSAT 902 (IS-902)", "group": "intelsat", "lat": 5.463817711158715, "lon": 178.56183524790816, "alt_km": 35782.228210129506, "timestamp": "2025-12-12T09:49:08.395302+00:00", "meta": {"OBJECT_NAME": "INTELSAT 902 (IS-902)", "OBJECT_ID": "2001-039A", "EPOCH": "2025-12-11T04:42:42.842016", "MEAN_MOTION": 1.00272526, "ECCENTRICITY": 0.00044264, "INCLINATION": 5.6424, "RA_OF_ASC_NODE": 74.0881, "ARG_OF_PERICENTER": 184.9809, "MEAN_ANOMALY": 201.6699, "EPHEMERIS_TYPE": 0, "CLASSIFICATION_TYPE": "U", "NORAD_CAT_ID": 26900, "ELEMENT_SET_NO": 999, "REV_AT_EPOCH": 8881, "BSTAR": 0, "MEAN_MOTION_DOT": -2.78e-06, "MEAN_MOTION_DDOT": 0}, "tle": {"line1": "1 26900U 01039A   25345.19632919 -.00000278  00000+0  00000+0 0  9995", "line2": "2 26900   5.6424  74.0881 0004426 184.9809 201.6699  1.00272526 88816"}}, "geometry": {"type": "Point", "coordinates": [178.56183524790816, 5.463817711158715]}}, {"type": "Feature", "properties": {"norad_id": 27380, "name": "INTELSAT 904 (IS-904)", "group": "intelsat", "lat": 5.230488231549249, "lon": -162.70654810528032, "alt_km": 35786.25523824248, "timestamp": "2025-12-12T09:49:08.395317+00:00", "meta": {"OBJECT_NAME": "INTELSAT 904 (IS-904)", "OBJECT_ID": "2002-007A", "EPOCH": "2025-12-12T03:03:24.449184", "MEAN_MOTION": 1.002728, "ECCENTRICITY": 0.0001523, "INCLINATION": 6.4535, "RA_OF_ASC_NODE": 71.4393, "ARG_OF_PERICENTER": 225.8238, "MEAN_ANOMALY": 158.1601, "EPHEMERIS_TYPE": 0, "CLASSIFICATION_TYPE": "U", "NORAD_CAT_ID": 27380, "ELEMENT_SET_NO": 999, "REV_AT_EPOCH": 4989, "BSTAR": 0, "MEAN_MOTION_DOT": -2.17e-06, "MEAN_MOTION_DDOT": 0}, "tle": {"line1": "1 27380U 02007A   25346.12736631 -.00000217  00000+0  00000+0 0  9997", "line2": "2 27380   6.4535  71.4393 0001523 225.8238 158.1601  1.00272800 49895"}}, "geometry": {"type": "Point", "coordinates": [-162.70654810528032, 5.230488231549249]}}, {"type": "Feature", "properties": {"norad_id": 27426, "name": "DIRECTV 5 (TEMPO 1)", "group": "intelsat", "lat": 2.8904501866875103, "lon": 118.41293714106072, "alt_km": 35798.93333213936, "timestamp": "2025-12-12T09:49:08.395331+00:00", "meta": {"OBJECT_NAME": "DIRECTV 5 (TEMPO 1)", "OBJECT_ID": "2002-023A", "EPOCH": "2025-12-12T03:46:38.737056", "MEAN_MOTION": 1.00272009, "ECCENTRICITY": 0.0003488, "INCLINATION": 4.401, "RA_OF_ASC_NODE": 77.6596, "ARG_OF_PERICENTER": 195.1636, "MEAN_ANOMALY": 114.8209, "EPHEMERIS_TYPE": 0, "CLASSIFICATION_TYPE": "U", "NORAD_CAT_ID": 27426, "ELEMENT_SET_NO": 999, "REV_AT_EPOCH": 8624, "BSTAR": 0, "MEAN_MOTION_DOT": -4.8e-07, "MEAN_MOTION_DDOT": 0}, "tle": {"line1": "1 27426U 02023A   25346.15739279 -.00000048  00000+0  00000+0 0  9992", "line2": "2 27426   4.4010  77.6596 0003488 195.1636 114.8209  1.00272009 86242"}}, "geometry": {"type": "Point", "coordinates": [118.41293714106072, 2.8904501866875103]}}, {"type": "Feature", "properties": {"norad_id": 27438, "name": "INTELSAT 905 (IS-905)", "group": "intelsat", "lat": 2.099656262812025, "lon": 91.33126150932873, "alt_km": 35797.048282474825, "timestamp": "2025-12-12T09:49:08.395344+00:00", "meta": {"OBJECT_NAME": "INTELSAT 905 (IS-905)", "OBJECT_ID": "2002-027A", "EPOCH": "2025-12-11T12:11:37.320576", "MEAN_MOTION": 1.00272852, "ECCENTRICITY": 0.00027503, "INCLINATION": 6.283, "RA_OF_ASC_NODE": 72.0704, "ARG_OF_PERICENTER": 196.0234, "MEAN_ANOMALY": 218.0777, "EPHEMERIS_TYPE": 0, "CLASSIFICATION_TYPE": "U", "NORAD_CAT_ID": 27438, "ELEMENT_SET_NO": 999, "REV_AT_EPOCH": 4948, "BSTAR": 0, "MEAN_MOTION_DOT": 1e-06, "MEAN_MOTION_DDOT": 0}, "tle": {"line1": "1 27438U 02027A   25345.50807084  .00000100  00000+0  00000+0 0  9995", "line2": "2 27438   6.2830  72.0704 0002750 196.0234 218.0777  1.00272852 49488"}}, "geometry": {"type": "Point", "coordinates": [91.33126150932873, 2.099656262812025]}}, {"type": "Feature", "properties": {"norad_id": 27445, "name": "GALAXY 3C (G-3C)", "group": "intelsat", "lat": 2.623851736292136, "lon": 133.72226809774884, "alt_km": 35782.15500669529, "timestamp": "2025-12-12T09:49:08.395357+00:00", "meta": {"OBJECT_NAME": "GALAXY 3C (G-3C)", "OBJECT_ID": "2002-030A", "EPOCH": "2025-12-12T02:45:26.170272", "MEAN_MOTION": 1.00271456, "ECCENTRICITY": 0.0001101, "INCLINATION": 3.2629, "RA_OF_ASC_NODE": 80.5134, "ARG_OF_PERICENTER": 90.2261, "MEAN_ANOMALY": 216.8216, "EPHEMERIS_TYPE": 0, "CLASSIFICATION_TYPE": "U", "NORAD_CAT_ID": 27445, "ELEMENT_SET_NO": 999, "REV_AT_EPOCH": 4461, "BSTAR": 0, "MEAN_MOTION_DOT": -1.43e-06, "MEAN_MOTION_DDOT": 0}, "tle": {"line1": "1 27445U 02030A   25346.11488623 -.00000143  00000+0  00000+0 0  9997", "line2": "2 27445   3.2629  80.5134 0001101  90.2261 216.8216  1.00271456 44617"}}, "geometry": {"type": "Point", "coordinates": [133.72226809774884, 2.623851736292136]}}, {"type": "Feature", "properties": {"norad_id": 27513, "name": "INTELSAT 906 (IS-906)", "group": "intelsat", "lat": -3.2605626766651543, "lon": -67.31723580692477, "alt_km": 35763.06333183919, "timestamp": "2025-12-12T09:49:08.395370+00:00", "meta": {"OBJECT_NAME": "INTELSAT 906 (IS-906)", "OBJECT_ID": "2002-041A", "EPOCH": "2025-12-11T20:06:53.261280", "MEAN_MOTION": 1.00271417, "ECCENTRICITY": 0.00061629, "INCLINATION": 5.3265, "RA_OF_ASC_NODE": 75.242, "ARG_OF_PERICENTER": 192.0283, "MEAN_ANOMALY": 179.375, "EPHEMERIS_TYPE": 0, "CLASSIFICATION_TYPE": "U", "NORAD_CAT_ID": 27513, "ELEMENT_SET_NO": 999, "REV_AT_EPOCH": 8515, "BSTAR": 0, "MEAN_MOTION_DOT": 2.1e-07, "MEAN_MOTION_DDOT": 0}, "tle": {"line1": "1 27513U 02041A   25345.83811645  .00000021  00000+0  00000+0 0  9991", "line2": "2 27513   5.3265  75.2420 0006162 192.0283 179.3750  1.00271417 85155"}}, "geometry": {"type": "Point", "coordinates": [-67.31723580692477, -3.2605626766651543]}}, {"type": "Feature", "properties": {"norad_id": 27954, "name": "GALAXY 13 (HORIZONS-1)", "group": "intelsat", "lat": -0.10894890418062239, "lon": 78.63040273562721, "alt_km": 35794.836126462804, "timestamp": "2025-12-12T09:49:08.395382+00:00", "meta": {"OBJECT_NAME": "GALAXY 13 (HORIZONS-1)", "OBJECT_ID": "2003-044A", "EPOCH": "2025-12-12T03:20:38.467104", "MEAN_MOTION": 1.00271277, "ECCENTRICITY": 0.0002046, "INCLINATION": 0.934, "RA_OF_ASC_NODE": 86.477, "ARG_OF_PERICENTER": 167.0686, "MEAN_ANOMALY": 87.7006, "EPHEMERIS_TYPE": 0, "CLASSIFICATION_TYPE": "U", "NORAD_CAT_ID": 27954, "ELEMENT_SET_NO": 999, "REV_AT_EPOCH": 4469, "BSTAR": 0, "MEAN_MOTION_DOT": 1.42e-06, "MEAN_MOTION_DDOT": 0}, "tle": {"line1": "1 27954U 03044A   25346.13933411  .00000142  00000+0  00000+0 0  9998", "line2": "2 27954   0.9340  86.4770 0002046 167.0686  87.7006  1.00271277 44691"}}, "geometry": {"type": "Point", "coordinates": [78.63040273562721, -0.10894890418062239]}}, {"type": "Feature", "properties": {"norad_id": 28358, "name": "INTELSAT 10-02", "group": "intelsat", "lat": -0.008330208058116472, "lon": -132.34237746626295, "alt_km": 35784.694726778835, "timestamp": "2025-12-12T09:49:08.395395+00:00", "meta": {"OBJECT_NAME": "INTELSAT 10-02", "OBJECT_ID": "2004-022A", "EPOCH": "2025-12-12T01:29:25.948896", "MEAN_MOTION": 1.00271277, "ECCENTRICITY": 0.0001217, "INCLINATION": 0.0234, "RA_OF_ASC_NODE": 65.5197, "ARG_OF_PERICENTER": 235.151, "MEAN_ANOMALY": 161.7375, "EPHEMERIS_TYPE": 0, "CLASSIFICATION_TYPE": "U", "NORAD_CAT_ID": 28358, "ELEMENT_SET_NO": 999, "REV_AT_EPOCH": 7868, "BSTAR": 0, "MEAN_MOTION_DOT": -2e-08, "MEAN_MOTION_DDOT": 0}, "tle": {"line1": "1 28358U 04022A   25346.06210589 -.00000002  00000+0  00000+0 0  9996", "line2": "2 28358   0.0234  65.5197 0001217 235.1510 161.7375  1.00271277 78684"}}, "geometry": {"type": "Point", "coordinates": [-132.34237746626295, -0.008330208058116472]}}, {"type": "Feature", "properties": {"norad_id": 28626, "name": "XM-3 (RHYTHM)", "group": "intelsat", "lat": -0.1687767941135057, "lon": -15.471852433013076, "alt_km": 36153.63458273306, "timestamp": "2025-12-12T09:49:08.395422+00:00", "meta": {"OBJECT_NAME": "XM-3 (RHYTHM)", "OBJECT_ID": "2005-008A", "EPOCH": "2025-12-12T02:03:00.235296", "MEAN_MOTION": 0.98952726, "ECCENTRICITY": 0.0001522, "INCLINATION": 0.1732, "RA_OF_ASC_NODE": 81.4641, "ARG_OF_PERICENTER": 269.4596, "MEAN_ANOMALY": 238.2962, "EPHEMERIS_TYPE": 0, "CLASSIFICATION_TYPE": "U", "NORAD_CAT_ID": 28626, "ELEMENT_SET_NO": 999, "REV_AT_EPOCH": 4074, "BSTAR": 0, "MEAN_MOTION_DOT": -1.71e-06, "MEAN_MOTION_DDOT": 0}, "tle": {"line1": "1 28626U 05008A   25346.08541939 -.00000171  00000+0  00000+0 0  9994", "line2": "2 28626   0.1732  81.4641 0001522 269.4596 238.2962  0.98952726 40749"}}, "geometry": {"type": "Point", "coordinates": [-15.471852433013076, -0.1687767941135057]}}]}